0 THOR BURNER 2 R/B
1 03522U 68092B   13282.49591245  .00000131  00000-0  67405-4 0  8363
2 03522 098.2602 113.5916 0030773 128.5514 283.2675 14.28949999338598
0 THOR BURNER 2 R/B
1 03522U 68092B   13283.61447490  .00000137  00000-0  70061-4 0  8379
2 03522 098.2600 114.6518 0030805 125.3602 277.2776 14.28950305338751
0 THOR BURNER 2 R/B
1 03522U 68092B   13286.48868428  .00000114  00000-0  60927-4 0  8392
2 03522 098.2595 117.3759 0030860 117.1852 302.5130 14.28951207339162
0 THOR BURNER 2 R/B
1 03522U 68092B   13287.60643118  .00000159  00000-0  78386-4 0  8403
2 03522 098.2594 118.4352 0030873 113.9953 292.3346 14.28951885339327
0 THOR BURNER 2 R/B
1 03522U 68092B   13289.09689310  .00000160  00000-0  79005-4 0  8414
2 03522 098.2593 119.8477 0030883 109.7570 039.4342 14.28953015339534
0 THOR BURNER 2 R/B
1 03522U 68092B   13290.13958123  .00000153  00000-0  76046-4 0  8427
2 03522 098.2593 120.8358 0030885 106.7793 003.1521 14.28953345339689
0 THOR BURNER 2 R/B
1 03522U 68092B   13291.52249096  .00000147  00000-0  73680-4 0  8438
2 03522 098.2594 122.1464 0030885 102.8525 276.9931 14.28953682339884
0 THOR BURNER 2 R/B
1 03522U 68092B   13293.15589744  .00000153  00000-0  76239-4 0  8447
2 03522 098.2595 123.6944 0030873 098.2009 039.4324 14.28954183340119
0 THOR BURNER 2 R/B
1 03522U 68092B   13294.53262683  .00000173  00000-0  84012-4 0  8451
2 03522 098.2594 124.9992 0030861 094.2663 281.5115 14.28954907340318
0 THOR BURNER 2 R/B
1 03522U 68092B   13295.65804888  .00000183  00000-0  87921-4 0  8468
2 03522 098.2593 126.0657 0030842 091.0525 310.8317 14.28955394340477
